{
    "links": {
        "self": "http://www.neowsapp.com/rest/v1/neo/3843629?api_key=iIulBulltgU6a56xZRHN4H3l9WmuAYTsLGpBGhQ2"
    },
    "id": "3843629",
    "neo_reference_id": "3843629",
    "name": "(2019 QT3)",
    "designation": "2019 QT3",
    "nasa_jpl_url": "http://ssd.jpl.nasa.gov/sbdb.cgi?sstr=3843629",
    "absolute_magnitude_h": 23.6,
    "estimated_diameter": {
        "kilometers": {
            "estimated_diameter_min": 0.0506471459,
            "estimated_diameter_max": 0.1132504611
        },
        "meters": {
            "estimated_diameter_min": 50.6471458835,
            "estimated_diameter_max": 113.2504610618
        },
        "miles": {
            "estimated_diameter_min": 0.0314706677,
            "estimated_diameter_max": 0.0703705522
        },
        "feet": {
            "estimated_diameter_min": 166.1651821003,
            "estimated_diameter_max": 371.5566426699
        }
    },
    "is_potentially_hazardous_asteroid": false,
    "close_approach_data": [
        {
            "close_approach_date": "1968-05-07",
            "close_approach_date_full": "1968-May-07 12:30",
            "epoch_date_close_approach": -52140600000,
            "relative_velocity": {
                "kilometers_per_second": "4.9132059005",
                "kilometers_per_hour": "17687.5412416975",
                "miles_per_hour": "10990.3502787648"
            },
            "miss_distance": {
                "astronomical": "1.9158324086",
                "lunar": "745.2588069454",
                "kilometers": "286604447.603529682",
                "miles": "178087745.7023343316"
            },
            "orbiting_body": "Juptr"
        },
        {
            "close_approach_date": "2019-08-11",
            "close_approach_date_full": "2019-Aug-11 15:21",
            "epoch_date_close_approach": 1565536860000,
            "relative_velocity": {
                "kilometers_per_second": "7.382224195",
                "kilometers_per_hour": "26576.0071018494",
                "miles_per_hour": "16513.2973017019"
            },
            "miss_distance": {
                "astronomical": "0.0440253172",
                "lunar": "17.1258483908",
                "kilometers": "6586093.679194364",
                "miles": "4092408.8447316632"
            },
            "orbiting_body": "Earth"
        }
    ],
    "orbital_data": {
        "orbit_id": "3",
        "orbit_determination_date": "2019-10-06 05:59:04",
        "first_observation_date": "2019-08-24",
        "last_observation_date": "2019-09-02",
        "data_arc_in_days": 9,
        "observations_used": 30,
        "orbit_uncertainty": "8",
        "minimum_orbit_intersection": ".0433868",
        "jupiter_tisserand_invariant": "3.162",
        "epoch_osculation": "2458722.5",
        "eccentricity": ".5916635626724737",
        "semi_major_axis": "2.562411074349128",
        "inclination": "1.531754164602795",
        "ascending_node_longitude": "234.0905451433379",
        "orbital_period": "1498.206340816618",
        "perihelion_distance": "1.046325809068322",
        "perihelion_argument": "89.45322664761507",
        "aphelion_distance": "4.078496339629933",
        "perihelion_time": "2458711.344873756259",
        "mean_anomaly": "2.680435490319622",
        "mean_motion": ".2402873290496",
        "equinox": "J2000",
        "orbit_class": {
            "orbit_class_type": "AMO",
            "orbit_class_description": "Near-Earth asteroid orbits similar to that of 1221 Amor",
            "orbit_class_range": "1.017 AU < q (perihelion) < 1.3 AU"
        }
    },
    "is_sentry_object": false
}